CORAL                   
1 67684U 98067YA  26090.34199808  .00096370  00000+0  12434-2 0  9990
2 67684  51.6299 323.2476 0013009 254.5440 105.4115 15.58103769  8166
GXIBA-1                 
1 67685U 98067YB  26090.34173012  .00049521  00000+0  74561-3 0  9996
2 67685  51.6317 323.9961 0012138 261.6169  98.3445 15.54234510  8153
UITMSAT-2               
1 67686U 98067YC  26090.06851227  .00073306  00000+0  10596-2 0  9992
2 67686  51.6313 325.1732 0009294 232.9927 127.0214 15.55217837  8116
HMU-SAT2                
1 67687U 98067YD  26090.34707281  .00048670  00000+0  74104-3 0  9996
2 67687  51.6316 324.0346 0008689 237.1045 122.9110 15.53975494  8076
LEOPARD                 
1 67688U 98067YE  26089.94726729  .00058879  00000+0  86910-3 0  9999
2 67688  51.6317 325.8640 0008941 232.9203 127.0971 15.54741888  8018
CREW DRAGON 12          
1 67796U 26031A   26090.52027159  .00011565  00000+0  22010-3 0  9990
2 67796  51.6339 324.4353 0006210 255.4271 104.6029 15.48680190559679
PROGRESS-MS 33          
1 68319U 26058A   26090.52027159  .00011565  00000+0  22010-3 0  9991
2 68319  51.6339 324.4353 0006210 255.4271 104.6029 15.48680190   706
