CCSDS_OMM_VERS = 2.0
CREATION_DATE  = 
ORIGINATOR     = 

OBJECT_NAME    = CORAL
OBJECT_ID      = 1998-067YA
CENTER_NAME    = EARTH
REF_FRAME      = TEME
TIME_SYSTEM    = UTC
MEAN_ELEMENT_THEORY = SGP/SGP4

EPOCH          = 2026-03-31T08:12:28.634112
MEAN_MOTION    = 15.58103769
ECCENTRICITY   = .00130097
INCLINATION    = 51.6299
RA_OF_ASC_NODE = 323.2476
ARG_OF_PERICENTER = 254.5440
MEAN_ANOMALY   = 105.4115

EPHEMERIS_TYPE = 0
CLASSIFICATION_TYPE = U
NORAD_CAT_ID   = 67684
ELEMENT_SET_NO = 999
REV_AT_EPOCH   = 816
BSTAR          = .12434279E-2
MEAN_MOTION_DOT = .9637E-3
MEAN_MOTION_DDOT = 0

CCSDS_OMM_VERS = 2.0
CREATION_DATE  = 
ORIGINATOR     = 

OBJECT_NAME    = GXIBA-1
OBJECT_ID      = 1998-067YB
CENTER_NAME    = EARTH
REF_FRAME      = TEME
TIME_SYSTEM    = UTC
MEAN_ELEMENT_THEORY = SGP/SGP4

EPOCH          = 2026-03-31T08:12:05.482368
MEAN_MOTION    = 15.54234510
ECCENTRICITY   = .00121387
INCLINATION    = 51.6317
RA_OF_ASC_NODE = 323.9961
ARG_OF_PERICENTER = 261.6169
MEAN_ANOMALY   = 98.3445

EPHEMERIS_TYPE = 0
CLASSIFICATION_TYPE = U
NORAD_CAT_ID   = 67685
ELEMENT_SET_NO = 999
REV_AT_EPOCH   = 815
BSTAR          = .74560945E-3
MEAN_MOTION_DOT = .49521E-3
MEAN_MOTION_DDOT = 0

CCSDS_OMM_VERS = 2.0
CREATION_DATE  = 
ORIGINATOR     = 

OBJECT_NAME    = UITMSAT-2
OBJECT_ID      = 1998-067YC
CENTER_NAME    = EARTH
REF_FRAME      = TEME
TIME_SYSTEM    = UTC
MEAN_ELEMENT_THEORY = SGP/SGP4

EPOCH          = 2026-03-31T01:38:39.460128
MEAN_MOTION    = 15.55217837
ECCENTRICITY   = .00092944
INCLINATION    = 51.6313
RA_OF_ASC_NODE = 325.1732
ARG_OF_PERICENTER = 232.9927
MEAN_ANOMALY   = 127.0214

EPHEMERIS_TYPE = 0
CLASSIFICATION_TYPE = U
NORAD_CAT_ID   = 67686
ELEMENT_SET_NO = 999
REV_AT_EPOCH   = 811
BSTAR          = .10595588E-2
MEAN_MOTION_DOT = .73306E-3
MEAN_MOTION_DDOT = 0

CCSDS_OMM_VERS = 2.0
CREATION_DATE  = 
ORIGINATOR     = 

OBJECT_NAME    = HMU-SAT2
OBJECT_ID      = 1998-067YD
CENTER_NAME    = EARTH
REF_FRAME      = TEME
TIME_SYSTEM    = UTC
MEAN_ELEMENT_THEORY = SGP/SGP4

EPOCH          = 2026-03-31T08:19:47.090784
MEAN_MOTION    = 15.53975494
ECCENTRICITY   = .00086893
INCLINATION    = 51.6316
RA_OF_ASC_NODE = 324.0346
ARG_OF_PERICENTER = 237.1045
MEAN_ANOMALY   = 122.9110

EPHEMERIS_TYPE = 0
CLASSIFICATION_TYPE = U
NORAD_CAT_ID   = 67687
ELEMENT_SET_NO = 999
REV_AT_EPOCH   = 807
BSTAR          = .74103622E-3
MEAN_MOTION_DOT = .4867E-3
MEAN_MOTION_DDOT = 0

CCSDS_OMM_VERS = 2.0
CREATION_DATE  = 
ORIGINATOR     = 

OBJECT_NAME    = LEOPARD
OBJECT_ID      = 1998-067YE
CENTER_NAME    = EARTH
REF_FRAME      = TEME
TIME_SYSTEM    = UTC
MEAN_ELEMENT_THEORY = SGP/SGP4

EPOCH          = 2026-03-30T22:44:03.893856
MEAN_MOTION    = 15.54741888
ECCENTRICITY   = .00089411
INCLINATION    = 51.6317
RA_OF_ASC_NODE = 325.8640
ARG_OF_PERICENTER = 232.9203
MEAN_ANOMALY   = 127.0971

EPHEMERIS_TYPE = 0
CLASSIFICATION_TYPE = U
NORAD_CAT_ID   = 67688
ELEMENT_SET_NO = 999
REV_AT_EPOCH   = 801
BSTAR          = .86910104E-3
MEAN_MOTION_DOT = .58879E-3
MEAN_MOTION_DDOT = 0

CCSDS_OMM_VERS = 2.0
CREATION_DATE  = 
ORIGINATOR     = 

OBJECT_NAME    = CREW DRAGON 12
OBJECT_ID      = 2026-031A
CENTER_NAME    = EARTH
REF_FRAME      = TEME
TIME_SYSTEM    = UTC
MEAN_ELEMENT_THEORY = SGP/SGP4

EPOCH          = 2026-03-31T12:29:11.465376
MEAN_MOTION    = 15.48680190
ECCENTRICITY   = .00062102
INCLINATION    = 51.6339
RA_OF_ASC_NODE = 324.4353
ARG_OF_PERICENTER = 255.4271
MEAN_ANOMALY   = 104.6029

EPHEMERIS_TYPE = 0
CLASSIFICATION_TYPE = U
NORAD_CAT_ID   = 67796
ELEMENT_SET_NO = 999
REV_AT_EPOCH   = 55967
BSTAR          = .22009587E-3
MEAN_MOTION_DOT = .11565E-3
MEAN_MOTION_DDOT = 0

CCSDS_OMM_VERS = 2.0
CREATION_DATE  = 
ORIGINATOR     = 

OBJECT_NAME    = PROGRESS-MS 33
OBJECT_ID      = 2026-058A
CENTER_NAME    = EARTH
REF_FRAME      = TEME
TIME_SYSTEM    = UTC
MEAN_ELEMENT_THEORY = SGP/SGP4

EPOCH          = 2026-03-31T12:29:11.465376
MEAN_MOTION    = 15.48680190
ECCENTRICITY   = .00062102
INCLINATION    = 51.6339
RA_OF_ASC_NODE = 324.4353
ARG_OF_PERICENTER = 255.4271
MEAN_ANOMALY   = 104.6029

EPHEMERIS_TYPE = 0
CLASSIFICATION_TYPE = U
NORAD_CAT_ID   = 68319
ELEMENT_SET_NO = 999
REV_AT_EPOCH   = 70
BSTAR          = .22009587E-3
MEAN_MOTION_DOT = .11565E-3
MEAN_MOTION_DDOT = 0

